{
    "links": {
        "self": "http://www.neowsapp.com/rest/v1/neo/3687133?api_key=iIulBulltgU6a56xZRHN4H3l9WmuAYTsLGpBGhQ2"
    },
    "id": "3687133",
    "neo_reference_id": "3687133",
    "name": "(2014 RC17)",
    "designation": "2014 RC17",
    "nasa_jpl_url": "http://ssd.jpl.nasa.gov/sbdb.cgi?sstr=3687133",
    "absolute_magnitude_h": 22.4,
    "estimated_diameter": {
        "kilometers": {
            "estimated_diameter_min": 0.0880146521,
            "estimated_diameter_max": 0.1968067451
        },
        "meters": {
            "estimated_diameter_min": 88.0146520901,
            "estimated_diameter_max": 196.8067450894
        },
        "miles": {
            "estimated_diameter_min": 0.0546897524,
            "estimated_diameter_max": 0.122290004
        },
        "feet": {
            "estimated_diameter_min": 288.7619911632,
            "estimated_diameter_max": 645.6914415591
        }
    },
    "is_potentially_hazardous_asteroid": false,
    "close_approach_data": [
        {
            "close_approach_date": "2014-08-22",
            "close_approach_date_full": "2014-Aug-22 06:11",
            "epoch_date_close_approach": 1408687860000,
            "relative_velocity": {
                "kilometers_per_second": "3.7087340042",
                "kilometers_per_hour": "13351.4424152181",
                "miles_per_hour": "8296.0670940559"
            },
            "miss_distance": {
                "astronomical": "0.2503274857",
                "lunar": "97.3773919373",
                "kilometers": "37448458.663175459",
                "miles": "23269393.1971969742"
            },
            "orbiting_body": "Earth"
        }
    ],
    "orbital_data": {
        "orbit_id": "7",
        "orbit_determination_date": "2017-04-06 08:38:44",
        "first_observation_date": "2014-09-04",
        "last_observation_date": "2014-09-26",
        "data_arc_in_days": 22,
        "observations_used": 24,
        "orbit_uncertainty": "8",
        "minimum_orbit_intersection": ".246352",
        "jupiter_tisserand_invariant": "3.584",
        "epoch_osculation": "2456908.5",
        "eccentricity": ".4211676881461",
        "semi_major_axis": "2.14231831650708",
        "inclination": "6.860841758750598",
        "ascending_node_longitude": "189.3023319228808",
        "orbital_period": "1145.313627814642",
        "perihelion_distance": "1.240043063870748",
        "perihelion_argument": "133.4413181294895",
        "aphelion_distance": "3.044593569143411",
        "perihelion_time": "2456882.210234394425",
        "mean_anomaly": "8.263514366860139",
        "mean_motion": ".3143243835200943",
        "equinox": "J2000",
        "orbit_class": {
            "orbit_class_type": "AMO",
            "orbit_class_description": "Near-Earth asteroid orbits similar to that of 1221 Amor",
            "orbit_class_range": "1.017 AU < q (perihelion) < 1.3 AU"
        }
    },
    "is_sentry_object": false
}